start=new Date('2022-03-05T00:00:00.000Z').valueOf();
sats=[{"EPOCH":"2022-03-04T13:07:00.566112","LAUNCH_DATE":"2021-01-20","CLASSIFICATION_TYPE":"U","SITE":"AFETR","PERIAPSIS":"546.138","PERIOD":"95.592","ECCENTRICITY":"0.00015370","OBJECT_NAME":"STARLINK-2103","MEAN_ANOMALY":"305.0004","OBJECT_ID":"2021-005AL","CENTER_NAME":"EARTH","DECAY_DATE":null,"EPHEMERIS_TYPE":"0","TLE_LINE2":"2 47383  53.0545 123.3937 0001537  55.1129 305.0004 15.06403736 62629","RA_OF_ASC_NODE":"123.3937","NORAD_CAT_ID":"47383","MEAN_MOTION_DDOT":"0.0000000000000","COUNTRY_CODE":"US","INCLINATION":"53.0545","SEMIMAJOR_AXIS":"6925.337","ARG_OF_PERICENTER":"55.1129","FILE":"3344545","APOAPSIS":"548.267","MEAN_ELEMENT_THEORY":"SGP4","REF_FRAME":"TEME","BSTAR":"0.00020323000000","REV_AT_EPOCH":"6262","RCS_SIZE":"LARGE","MEAN_MOTION":"15.06403736","OBJECT_TYPE":"PAYLOAD","TIME_SYSTEM":"UTC","TLE_LINE1":"1 47383U 21005AL  22063.54653433  .00002747  00000-0  20323-3 0  9992","GP_ID":"197876704","MEAN_MOTION_DOT":"0.00002747","ELEMENT_SET_NO":"999"},{"TLE_LINE2":"2 47384  53.0550 133.0591 0001453  53.2970 306.8152 15.06394540 62490","RA_OF_ASC_NODE":"133.0591","NORAD_CAT_ID":"47384","DECAY_DATE":null,"EPHEMERIS_TYPE":"0","PERIOD":"95.592","OBJECT_ID":"2021-005AM","MEAN_ANOMALY":"306.8152","CENTER_NAME":"EARTH","OBJECT_NAME":"STARLINK-2104","ECCENTRICITY":"0.00014530","EPOCH":"2022-03-04T14:57:09.519840","LAUNCH_DATE":"2021-01-20","SITE":"AFETR","CLASSIFICATION_TYPE":"U","PERIAPSIS":"546.224","GP_ID":"197904301","MEAN_MOTION_DOT":"0.00001033","ELEMENT_SET_NO":"999","RCS_SIZE":"LARGE","OBJECT_TYPE":"PAYLOAD","MEAN_MOTION":"15.06394540","TIME_SYSTEM":"UTC","TLE_LINE1":"1 47384U 21005AM  22063.62302685  .00001033  00000-0  88262-4 0  9996","FILE":"3344863","BSTAR":"0.00008826200000","MEAN_ELEMENT_THEORY":"SGP4","APOAPSIS":"548.237","REF_FRAME":"TEME","REV_AT_EPOCH":"6249","INCLINATION":"53.0550","COUNTRY_CODE":"US","MEAN_MOTION_DDOT":"0.0000000000000","SEMIMAJOR_AXIS":"6925.365","ARG_OF_PERICENTER":"53.2970"},{"NORAD_CAT_ID":"47385","RA_OF_ASC_NODE":"133.5606","TLE_LINE2":"2 47385  53.0546 133.5606 0001554  61.6956 298.4190 15.06401851 62477","EPHEMERIS_TYPE":"0","DECAY_DATE":null,"OBJECT_NAME":"STARLINK-2105","MEAN_ANOMALY":"298.4190","CENTER_NAME":"EARTH","OBJECT_ID":"2021-005AN","ECCENTRICITY":"0.00015540","PERIOD":"95.592","PERIAPSIS":"546.132","SITE":"AFETR","CLASSIFICATION_TYPE":"U","LAUNCH_DATE":"2021-01-20","EPOCH":"2022-03-04T12:13:58.389312","ELEMENT_SET_NO":"999","MEAN_MOTION_DOT":"0.00002259","GP_ID":"197844250","TLE_LINE1":"1 47385U 21005AN  22063.50970358  .00002259  00000-0  17047-3 0  9995","TIME_SYSTEM":"UTC","OBJECT_TYPE":"PAYLOAD","MEAN_MOTION":"15.06401851","RCS_SIZE":"LARGE","REV_AT_EPOCH":"6247","BSTAR":"0.00017047000000","APOAPSIS":"548.284","REF_FRAME":"TEME","MEAN_ELEMENT_THEORY":"SGP4","FILE":"3344357","ARG_OF_PERICENTER":"61.6956","SEMIMAJOR_AXIS":"6925.343","INCLINATION":"53.0546","COUNTRY_CODE":"US","MEAN_MOTION_DDOT":"0.0000000000000"},{"OBJECT_TYPE":"PAYLOAD","MEAN_MOTION":"15.06401357","TIME_SYSTEM":"UTC","TLE_LINE1":"1 47386U 21005AP  22063.60553009  .00001312  00000-0  10696-3 0  9999","RCS_SIZE":"LARGE","MEAN_MOTION_DOT":"0.00001312","ELEMENT_SET_NO":"999","GP_ID":"197904803","ARG_OF_PERICENTER":"53.9821","INCLINATION":"53.0539","COUNTRY_CODE":"US","MEAN_MOTION_DDOT":"0.0000000000000","SEMIMAJOR_AXIS":"6925.344","REV_AT_EPOCH":"6249","FILE":"3344863","BSTAR":"0.00010696000000","APOAPSIS":"548.290","MEAN_ELEMENT_THEORY":"SGP4","REF_FRAME":"TEME","EPHEMERIS_TYPE":"0","DECAY_DATE":null,"NORAD_CAT_ID":"47386","TLE_LINE2":"2 47386  53.0539 133.1322 0001560  53.9821 306.1313 15.06401357 62490","RA_OF_ASC_NODE":"133.1322","SITE":"AFETR","CLASSIFICATION_TYPE":"U","PERIAPSIS":"546.129","EPOCH":"2022-03-04T14:31:57.799776","LAUNCH_DATE":"2021-01-20","MEAN_ANOMALY":"306.1313","OBJECT_ID":"2021-005AP","OBJECT_NAME":"STARLINK-2106","CENTER_NAME":"EARTH","ECCENTRICITY":"0.00015600","PERIOD":"95.592"},{"EPHEMERIS_TYPE":"0","DECAY_DATE":null,"NORAD_CAT_ID":"47387","RA_OF_ASC_NODE":"162.8957","TLE_LINE2":"2 47387  53.0532 162.8957 0001409  73.2198 286.8946 15.06406197 62078","PERIAPSIS":"546.219","CLASSIFICATION_TYPE":"U","SITE":"AFETR","LAUNCH_DATE":"2021-01-20","EPOCH":"2022-03-04T15:47:36.306240","ECCENTRICITY":"0.00014090","OBJECT_NAME":"STARLINK-2108","MEAN_ANOMALY":"286.8946","CENTER_NAME":"EARTH","OBJECT_ID":"2021-005AQ","PERIOD":"95.592","TIME_SYSTEM":"UTC","TLE_LINE1":"1 47387U 21005AQ  22063.65805910  .00003260  00000-0  23760-3 0  9996","MEAN_MOTION":"15.06406197","OBJECT_TYPE":"PAYLOAD","RCS_SIZE":"LARGE","ELEMENT_SET_NO":"999","MEAN_MOTION_DOT":"0.00003260","GP_ID":"197905046","ARG_OF_PERICENTER":"73.2198","SEMIMAJOR_AXIS":"6925.330","MEAN_MOTION_DDOT":"0.0000000000000","COUNTRY_CODE":"US","INCLINATION":"53.0532","REV_AT_EPOCH":"6207","APOAPSIS":"548.170","MEAN_ELEMENT_THEORY":"SGP4","REF_FRAME":"TEME","BSTAR":"0.00023760000000","FILE":"3344863"},{"EPHEMERIS_TYPE":"0","DECAY_DATE":null,"NORAD_CAT_ID":"47388","TLE_LINE2":"2 47388  53.0532 162.8303 0001640  59.3566 300.7584 15.06401766 62076","RA_OF_ASC_NODE":"162.8303","CLASSIFICATION_TYPE":"U","SITE":"AFETR","PERIAPSIS":"546.072","EPOCH":"2022-03-04T16:08:50.298432","LAUNCH_DATE":"2021-01-20","ECCENTRICITY":"0.00016400","MEAN_ANOMALY":"300.7584","OBJECT_NAME":"STARLINK-2109","OBJECT_ID":"2021-005AR","CENTER_NAME":"EARTH","PERIOD":"95.592","OBJECT_TYPE":"PAYLOAD","MEAN_MOTION":"15.06401766","TIME_SYSTEM":"UTC","TLE_LINE1":"1 47388U 21005AR  22063.67280438  .00001795  00000-0  13935-3 0  9995","RCS_SIZE":"LARGE","MEAN_MOTION_DOT":"0.00001795","ELEMENT_SET_NO":"999","GP_ID":"197903802","ARG_OF_PERICENTER":"59.3566","MEAN_MOTION_DDOT":"0.0000000000000","COUNTRY_CODE":"US","INCLINATION":"53.0532","SEMIMAJOR_AXIS":"6925.343","REV_AT_EPOCH":"6207","FILE":"3344863","REF_FRAME":"TEME","APOAPSIS":"548.344","MEAN_ELEMENT_THEORY":"SGP4","BSTAR":"0.00013935000000"},{"DECAY_DATE":null,"EPHEMERIS_TYPE":"0","TLE_LINE2":"2 47389  53.0558 143.2184 0001511  64.6460 295.4685 15.06398471 62344","RA_OF_ASC_NODE":"143.2184","NORAD_CAT_ID":"47389","EPOCH":"2022-03-04T14:04:06.319200","LAUNCH_DATE":"2021-01-20","SITE":"AFETR","CLASSIFICATION_TYPE":"U","PERIAPSIS":"546.172","PERIOD":"95.592","MEAN_ANOMALY":"295.4685","OBJECT_NAME":"STARLINK-2110","OBJECT_ID":"2021-005AS","CENTER_NAME":"EARTH","ECCENTRICITY":"0.00015110","RCS_SIZE":"LARGE","OBJECT_TYPE":"PAYLOAD","MEAN_MOTION":"15.06398471","TIME_SYSTEM":"UTC","TLE_LINE1":"1 47389U 21005AS  22063.58618425 -.00000608  00000-0 -21928-4 0  9993","GP_ID":"197843751","MEAN_MOTION_DOT":"-0.00000608","ELEMENT_SET_NO":"999","COUNTRY_CODE":"US","INCLINATION":"53.0558","MEAN_MOTION_DDOT":"0.0000000000000","SEMIMAJOR_AXIS":"6925.353","ARG_OF_PERICENTER":"64.6460","FILE":"3344357","BSTAR":"-0.00002192800000","REF_FRAME":"TEME","APOAPSIS":"548.265","MEAN_ELEMENT_THEORY":"SGP4","REV_AT_EPOCH":"6234"},{"NORAD_CAT_ID":"47390","TLE_LINE2":"2 47390  53.0550 162.9372 0001483  68.3605 291.7542 15.06399435 62077","RA_OF_ASC_NODE":"162.9372","EPHEMERIS_TYPE":"0","DECAY_DATE":null,"CENTER_NAME":"EARTH","MEAN_ANOMALY":"291.7542","OBJECT_ID":"2021-005AT","OBJECT_NAME":"STARLINK-2111","ECCENTRICITY":"0.00014830","PERIOD":"95.592","SITE":"AFETR","CLASSIFICATION_TYPE":"U","PERIAPSIS":"546.188","EPOCH":"2022-03-04T15:31:40.715328","LAUNCH_DATE":"2021-01-20","MEAN_MOTION_DOT":"0.00002051","ELEMENT_SET_NO":"999","GP_ID":"197905303","MEAN_MOTION":"15.06399435","OBJECT_TYPE":"PAYLOAD","TLE_LINE1":"1 47390U 21005AT  22063.64699902  .00002051  00000-0  15657-3 0  9994","TIME_SYSTEM":"UTC","RCS_SIZE":"LARGE","REV_AT_EPOCH":"6207","FILE":"3344863","BSTAR":"0.00015657000000","APOAPSIS":"548.242","MEAN_ELEMENT_THEORY":"SGP4","REF_FRAME":"TEME","ARG_OF_PERICENTER":"68.3605","INCLINATION":"53.0550","COUNTRY_CODE":"US","MEAN_MOTION_DDOT":"0.0000000000000","SEMIMAJOR_AXIS":"6925.350"},{"ARG_OF_PERICENTER":"62.3879","SEMIMAJOR_AXIS":"6925.354","MEAN_MOTION_DDOT":"0.0000000000000","INCLINATION":"53.0562","COUNTRY_CODE":"US","REV_AT_EPOCH":"6309","MEAN_ELEMENT_THEORY":"SGP4","APOAPSIS":"548.318","REF_FRAME":"TEME","BSTAR":"-0.00000402220000","FILE":"3344552","TLE_LINE1":"1 47391U 21005AU  22063.58985081 -.00000341  00000-0 -40222-5 0  9994","TIME_SYSTEM":"UTC","OBJECT_TYPE":"PAYLOAD","MEAN_MOTION":"15.06398149","RCS_SIZE":"LARGE","ELEMENT_SET_NO":"999","MEAN_MOTION_DOT":"-0.00000341","GP_ID":"197876822","PERIAPSIS":"546.120","CLASSIFICATION_TYPE":"U","SITE":"AFETR","LAUNCH_DATE":"2021-01-20","EPOCH":"2022-03-04T14:09:23.109984","ECCENTRICITY":"0.00015870","OBJECT_ID":"2021-005AU","MEAN_ANOMALY":"297.7271","OBJECT_NAME":"STARLINK-2112","CENTER_NAME":"EARTH","PERIOD":"95.592","EPHEMERIS_TYPE":"0","DECAY_DATE":null,"NORAD_CAT_ID":"47391","RA_OF_ASC_NODE":"133.1868","TLE_LINE2":"2 47391  53.0562 133.1868 0001587  62.3879 297.7271 15.06398149 63092"},{"ARG_OF_PERICENTER":"71.3532","MEAN_MOTION_DDOT":"0.0000000000000","INCLINATION":"53.0549","COUNTRY_CODE":"US","SEMIMAJOR_AXIS":"6925.371","REV_AT_EPOCH":"6248","FILE":"3344357","APOAPSIS":"548.336","REF_FRAME":"TEME","MEAN_ELEMENT_THEORY":"SGP4","BSTAR":"0.00000283390000","OBJECT_TYPE":"PAYLOAD","MEAN_MOTION":"15.06392836","TLE_LINE1":"1 47392U 21005AV  22063.59080152 -.00000239  00000-0  28339-5 0  9991","TIME_SYSTEM":"UTC","RCS_SIZE":"LARGE","MEAN_MOTION_DOT":"-0.00000239","ELEMENT_SET_NO":"999","GP_ID":"197843515","CLASSIFICATION_TYPE":"U","SITE":"AFETR","PERIAPSIS":"546.135","EPOCH":"2022-03-04T14:10:45.251328","LAUNCH_DATE":"2021-01-20","ECCENTRICITY":"0.00015890","MEAN_ANOMALY":"288.7630","OBJECT_NAME":"STARLINK-2113","CENTER_NAME":"EARTH","OBJECT_ID":"2021-005AV","PERIOD":"95.593","EPHEMERIS_TYPE":"0","DECAY_DATE":null,"NORAD_CAT_ID":"47392","TLE_LINE2":"2 47392  53.0549 133.1857 0001589  71.3532 288.7630 15.06392836 62482","RA_OF_ASC_NODE":"133.1857"}];
